{"type": "FeatureCollection", "features": [ {"type": "Feature", "properties": {"norad_id": 37919, "name": "FENGYUN 1C DEB", "group": "fengyun-1c-debris", "lat": 70.46132612070227, "lon": -110.81218081064124, "alt_km": 765.4075029545829, "timestamp": "2025-12-04T05:42:43.662570+00:00", "meta": {"OBJECT_NAME": "FENGYUN 1C DEB", "OBJECT_ID": "1999-025ENU", "EPOCH": "2025-12-01T13:25:03.337824", "MEAN_MOTION": 14.26713739, "ECCENTRICITY": 0.00500779, "INCLINATION": 99.0554, "RA_OF_ASC_NODE": 273.1218, "ARG_OF_PERICENTER": 48.0524, "MEAN_ANOMALY": 312.4907, "EPHEMERIS_TYPE": 0, "CLASSIFICATION_TYPE": "U", "NORAD_CAT_ID": 37919, "ELEMENT_SET_NO": 999, "REV_AT_EPOCH": 64749, "BSTAR": 0.00057424201, "MEAN_MOTION_DOT": 1.361e-05, "MEAN_MOTION_DDOT": 0}, "tle": {"line1": "1 37919U 99025ENU 25335.55906641  .00001361  00000+0  57424-3 0  9993", "line2": "2 37919  99.0554 273.1218 0050077  48.0524 312.4907 14.26713739647498"}}, "geometry": {"type": "Point", "coordinates": [-110.81218081064124, 70.46132612070227]}}, {"type": "Feature", "properties": {"norad_id": 37921, "name": "FENGYUN 1C DEB", "group": "fengyun-1c-debris", "lat": -70.31149866957013, "lon": 173.1357558476445, "alt_km": 957.6907761491884, "timestamp": "2025-12-04T05:42:43.662580+00:00", "meta": {"OBJECT_NAME": "FENGYUN 1C DEB", "OBJECT_ID": "1999-025ENW", "EPOCH": "2025-12-02T09:29:00.620448", "MEAN_MOTION": 13.95145191, "ECCENTRICITY": 0.00843513, "INCLINATION": 99.0237, "RA_OF_ASC_NODE": 17.6982, "ARG_OF_PERICENTER": 126.7375, "MEAN_ANOMALY": 234.157, "EPHEMERIS_TYPE": 0, "CLASSIFICATION_TYPE": "U", "NORAD_CAT_ID": 37921, "ELEMENT_SET_NO": 999, "REV_AT_EPOCH": 63003, "BSTAR": 0.00035853699, "MEAN_MOTION_DOT": 4.56e-06, "MEAN_MOTION_DDOT": 0}, "tle": {"line1": "1 37921U 99025ENW 25336.39514607  .00000456  00000+0  35854-3 0  9993", "line2": "2 37921  99.0237  17.6982 0084351 126.7375 234.1570 13.95145191630032"}}, "geometry": {"type": "Point", "coordinates": [173.1357558476445, -70.31149866957013]}}, {"type": "Feature", "properties": {"norad_id": 37925, "name": "FENGYUN 1C DEB", "group": "fengyun-1c-debris", "lat": -51.75254400127963, "lon": -142.0067926938763, "alt_km": 617.3029265996593, "timestamp": "2025-12-04T05:42:43.662590+00:00", "meta": {"OBJECT_NAME": "FENGYUN 1C DEB", "OBJECT_ID": "1999-025EPA", "EPOCH": "2025-12-03T08:51:08.944992", "MEAN_MOTION": 14.79858027, "ECCENTRICITY": 0.0057842, "INCLINATION": 99.0872, "RA_OF_ASC_NODE": 205.2959, "ARG_OF_PERICENTER": 11.9768, "MEAN_ANOMALY": 348.28, "EPHEMERIS_TYPE": 0, "CLASSIFICATION_TYPE": "U", "NORAD_CAT_ID": 37925, "ELEMENT_SET_NO": 999, "REV_AT_EPOCH": 65544, "BSTAR": 0.0022468503, "MEAN_MOTION_DOT": 0.00017399, "MEAN_MOTION_DDOT": 0}, "tle": {"line1": "1 37925U 99025EPA 25337.36885353  .00017399  00000+0  22469-2 0  9995", "line2": "2 37925  99.0872 205.2959 0057842  11.9768 348.2800 14.79858027655443"}}, "geometry": {"type": "Point", "coordinates": [-142.0067926938763, -51.75254400127963]}}, {"type": "Feature", "properties": {"norad_id": 37926, "name": "FENGYUN 1C DEB", "group": "fengyun-1c-debris", "lat": 63.67201431738168, "lon": 23.39127681960128, "alt_km": 843.6453313286056, "timestamp": "2025-12-04T05:42:43.662600+00:00", "meta": {"OBJECT_NAME": "FENGYUN 1C DEB", "OBJECT_ID": "1999-025EPB", "EPOCH": "2025-12-03T04:25:32.954880", "MEAN_MOTION": 14.24106598, "ECCENTRICITY": 0.0053443, "INCLINATION": 98.7252, "RA_OF_ASC_NODE": 40.4255, "ARG_OF_PERICENTER": 248.7296, "MEAN_ANOMALY": 177.8469, "EPHEMERIS_TYPE": 0, "CLASSIFICATION_TYPE": "U", "NORAD_CAT_ID": 37926, "ELEMENT_SET_NO": 999, "REV_AT_EPOCH": 74134, "BSTAR": 0.0021991, "MEAN_MOTION_DOT": 5.093e-05, "MEAN_MOTION_DDOT": 0}, "tle": {"line1": "1 37926U 99025EPB 25337.18440920  .00005093  00000+0  21991-2 0  9990", "line2": "2 37926  98.7252  40.4255 0053443 248.7296 177.8469 14.24106598741340"}}, "geometry": {"type": "Point", "coordinates": [23.39127681960128, 63.67201431738168]}}, {"type": "Feature", "properties": {"norad_id": 37927, "name": "FENGYUN 1C DEB", "group": "fengyun-1c-debris", "lat": 27.36715157821702, "lon": 116.62193857419518, "alt_km": 657.6504252257446, "timestamp": "2025-12-04T05:42:43.662610+00:00", "meta": {"OBJECT_NAME": "FENGYUN 1C DEB", "OBJECT_ID": "1999-025EPC", "EPOCH": "2025-11-29T16:11:45.032064", "MEAN_MOTION": 14.70717717, "ECCENTRICITY": 0.00076239, "INCLINATION": 98.8072, "RA_OF_ASC_NODE": 116.2969, "ARG_OF_PERICENTER": 304.8102, "MEAN_ANOMALY": 55.2384, "EPHEMERIS_TYPE": 0, "CLASSIFICATION_TYPE": "U", "NORAD_CAT_ID": 37927, "ELEMENT_SET_NO": 999, "REV_AT_EPOCH": 64924, "BSTAR": 0.0038923403, "MEAN_MOTION_DOT": 0.00023758, "MEAN_MOTION_DDOT": 0}, "tle": {"line1": "1 37927U 99025EPC 25333.67482676  .00023758  00000+0  38923-2 0  9996", "line2": "2 37927  98.8072 116.2969 0007623 304.8102  55.2384 14.70717717649248"}}, "geometry": {"type": "Point", "coordinates": [116.62193857419518, 27.36715157821702]}}, {"type": "Feature", "properties": {"norad_id": 37928, "name": "FENGYUN 1C DEB", "group": "fengyun-1c-debris", "lat": -62.93808449976774, "lon": -129.5788588205727, "alt_km": 802.8402425337608, "timestamp": "2025-12-04T05:42:43.662620+00:00", "meta": {"OBJECT_NAME": "FENGYUN 1C DEB", "OBJECT_ID": "1999-025EPD", "EPOCH": "2025-11-28T09:38:34.088352", "MEAN_MOTION": 14.37023237, "ECCENTRICITY": 0.00733565, "INCLINATION": 98.9159, "RA_OF_ASC_NODE": 206.4819, "ARG_OF_PERICENTER": 74.7645, "MEAN_ANOMALY": 286.1636, "EPHEMERIS_TYPE": 0, "CLASSIFICATION_TYPE": "U", "NORAD_CAT_ID": 37928, "ELEMENT_SET_NO": 999, "REV_AT_EPOCH": 80986, "BSTAR": 0.00065957038, "MEAN_MOTION_DOT": 1.971e-05, "MEAN_MOTION_DDOT": 0}, "tle": {"line1": "1 37928U 99025EPD 25332.40178343  .00001971  00000+0  65957-3 0  9991", "line2": "2 37928  98.9159 206.4819 0073356  74.7645 286.1636 14.37023237809864"}}, "geometry": {"type": "Point", "coordinates": [-129.5788588205727, -62.93808449976774]}}, {"type": "Feature", "properties": {"norad_id": 38116, "name": "FENGYUN 1C DEB", "group": "fengyun-1c-debris", "lat": -30.109031682272505, "lon": -167.9595366437601, "alt_km": 801.3042125361053, "timestamp": "2025-12-04T05:42:43.662635+00:00", "meta": {"OBJECT_NAME": "FENGYUN 1C DEB", "OBJECT_ID": "1999-025EPM", "EPOCH": "2025-11-28T20:45:55.302624", "MEAN_MOTION": 14.16973073, "ECCENTRICITY": 0.0072, "INCLINATION": 98.7141, "RA_OF_ASC_NODE": 11.879, "ARG_OF_PERICENTER": 186.1596, "MEAN_ANOMALY": 351.8835, "EPHEMERIS_TYPE": 0, "CLASSIFICATION_TYPE": "U", "NORAD_CAT_ID": 38116, "ELEMENT_SET_NO": 999, "REV_AT_EPOCH": 64288, "BSTAR": 0.00050837388, "MEAN_MOTION_DOT": 1.004e-05, "MEAN_MOTION_DDOT": 0}, "tle": {"line1": "1 38116U 99025EPM 25332.86522341  .00001004  00000+0  50837-3 0  9990", "line2": "2 38116  98.7141  11.8790 0072000 186.1596 351.8835 14.16973073642884"}}, "geometry": {"type": "Point", "coordinates": [-167.9595366437601, -30.109031682272505]}}, {"type": "Feature", "properties": {"norad_id": 38121, "name": "FENGYUN 1C DEB", "group": "fengyun-1c-debris", "lat": -22.777859904638866, "lon": 133.2933277615913, "alt_km": 973.1550245655753, "timestamp": "2025-12-04T05:42:43.662645+00:00", "meta": {"OBJECT_NAME": "FENGYUN 1C DEB", "OBJECT_ID": "1999-025EPS", "EPOCH": "2025-11-29T04:12:17.244576", "MEAN_MOTION": 14.2162433, "ECCENTRICITY": 0.02065546, "INCLINATION": 99.115, "RA_OF_ASC_NODE": 124.1974, "ARG_OF_PERICENTER": 166.4816, "MEAN_ANOMALY": 194.2011, "EPHEMERIS_TYPE": 0, "CLASSIFICATION_TYPE": "U", "NORAD_CAT_ID": 38121, "ELEMENT_SET_NO": 999, "REV_AT_EPOCH": 83727, "BSTAR": 0.001349076, "MEAN_MOTION_DOT": 3.628e-05, "MEAN_MOTION_DDOT": 0}, "tle": {"line1": "1 38121U 99025EPS 25333.17519959  .00003628  00000+0  13491-2 0  9990", "line2": "2 38121  99.1150 124.1974 0206554 166.4816 194.2011 14.21624330837275"}}, "geometry": {"type": "Point", "coordinates": [133.2933277615913, -22.777859904638866]}}, {"type": "Feature", "properties": {"norad_id": 38122, "name": "FENGYUN 1C DEB", "group": "fengyun-1c-debris", "lat": -4.974522434442323, "lon": -18.397173842683724, "alt_km": 914.1540495564332, "timestamp": "2025-12-04T05:42:43.662655+00:00", "meta": {"OBJECT_NAME": "FENGYUN 1C DEB", "OBJECT_ID": "1999-025EPT", "EPOCH": "2025-12-03T06:25:51.305088", "MEAN_MOTION": 14.42594537, "ECCENTRICITY": 0.0227364, "INCLINATION": 98.317, "RA_OF_ASC_NODE": 339.9263, "ARG_OF_PERICENTER": 185.5048, "MEAN_ANOMALY": 174.3639, "EPHEMERIS_TYPE": 0, "CLASSIFICATION_TYPE": "U", "NORAD_CAT_ID": 38122, "ELEMENT_SET_NO": 999, "REV_AT_EPOCH": 67602, "BSTAR": 0.0006206, "MEAN_MOTION_DOT": 2.764e-05, "MEAN_MOTION_DDOT": 0}, "tle": {"line1": "1 38122U 99025EPT 25337.26795492  .00002764  00000+0  62060-3 0  9990", "line2": "2 38122  98.3170 339.9263 0227364 185.5048 174.3639 14.42594537676024"}}, "geometry": {"type": "Point", "coordinates": [-18.397173842683724, -4.974522434442323]}}, {"type": "Feature", "properties": {"norad_id": 38124, "name": "FENGYUN 1C DEB", "group": "fengyun-1c-debris", "lat": 24.572937764210746, "lon": 116.32736673599504, "alt_km": 1370.1613396374332, "timestamp": "2025-12-04T05:42:43.662665+00:00", "meta": {"OBJECT_NAME": "FENGYUN 1C DEB", "OBJECT_ID": "1999-025EPV", "EPOCH": "2025-11-17T02:51:17.993664", "MEAN_MOTION": 13.40908773, "ECCENTRICITY": 0.03570409, "INCLINATION": 97.805, "RA_OF_ASC_NODE": 279.4801, "ARG_OF_PERICENTER": 12.4947, "MEAN_ANOMALY": 348.4759, "EPHEMERIS_TYPE": 0, "CLASSIFICATION_TYPE": "U", "NORAD_CAT_ID": 38124, "ELEMENT_SET_NO": 999, "REV_AT_EPOCH": 54238, "BSTAR": 0.00079426358, "MEAN_MOTION_DOT": 6.08e-06, "MEAN_MOTION_DDOT": 0}, "tle": {"line1": "1 38124U 99025EPV 25321.11895826  .00000608  00000+0  79426-3 0  9990", "line2": "2 38124  97.8050 279.4801 0357040  12.4947 348.4759 13.40908773542380"}}, "geometry": {"type": "Point", "coordinates": [116.32736673599504, 24.572937764210746]}}]}